*******************************************************************************
Ephemeris / WWW_USER Mon Mar 24 11:33:37 2025 Pasadena, USA      / Horizons    
*******************************************************************************
Target body name: (2018 KH3)                      {source: JPL#10}
Center body name: Earth (399)                     {source: DE441}
Center-site name: Mauna Kea
*******************************************************************************
Start time      : A.D. 2018-Aug-04 05:07:00.0000 UT      
Stop  time      : A.D. 2018-Aug-04 15:49:00.0000 UT      
Step-size       : 1 minutes
*******************************************************************************
Target pole/equ : undefined
Target radii    : undefined                                                    
Center geodetic : 204.5278, 19.8260847, 4.21024   {E-lon(deg),Lat(deg),Alt(km)}
Center cylindric: 204.5278, 6006.35451, 2151.0229 {E-lon(deg),Dxy(km),Dz(km)}
Center pole/equ : ITRF93                          {East-longitude positive}
Center radii    : 6378.137, 6378.137, 6356.752 km {Equator_a, b, pole_c}       
Target primary  : Sun
Vis. interferer : MOON (R_eq= 1737.400) km        {source: DE441}
Rel. light bend : Sun                             {source: DE441}
Rel. lght bnd GM: 1.3271E+11 km^3/s^2                                          
Small-body perts: Yes                             {source: SB441-N16}
Atmos refraction: NO (AIRLESS)
RA format       : HMS
Time format     : CAL 
Calendar mode   : Mixed Julian/Gregorian
RTS-only print  : NO       
EOP file        : eop.250321.p250617                                           
EOP coverage    : DATA-BASED 1962-JAN-20 TO 2025-MAR-21. PREDICTS-> 2025-JUN-16
Units conversion: 1 au= 149597870.700 km, c= 299792.458 km/s, 1 day= 86400.0 s 
Table cut-offs 1: Elevation (-90.0deg=NO ),Airmass (>38.000=NO), Daylight (YES)
Table cut-offs 2: Solar elongation (  0.0,180.0=NO ),Local Hour Angle( 0.0=NO )
Table cut-offs 3: RA/DEC angular rate (     0.0=NO )                           
*******************************************************************************
Initial IAU76/J2000 heliocentric ecliptic osculating elements (au, days, deg.):
  EPOCH=  2458288.5 ! 2018-Jun-19.00 (TDB)         Residual RMS= .22282        
   EC= .960925581819226    QR= 3.698978437965829   TP= 2457875.4618278281      
   OM= 293.0370088641419   W=  320.1514802298502   IN= 46.86534913190896       
  Equivalent ICRF heliocentric cartesian coordinates (au, au/d):
   X= 3.123713088662113E+00  Y=-4.022617727101489E+00  Z=-9.776572180429732E-02
  VX= 7.160289219203867E-03 VY=-1.601856640773144E-03 VZ= 7.695430476273978E-03
Asteroid physical parameters (km, seconds, rotational period in hours):        
   GM= n.a.                RAD= n.a.               ROTPER= n.a.                
   H= 13.69                G= .150                 B-V= n.a.                   
                           ALBEDO= n.a.            STYP= n.a.                  
*******************************************************************************
 Date__(UT)__HR:MN     R.A._________(ICRF)_________DEC
******************************************************
$$SOE
 2018-Aug-04 11:16  m  20 37 00.160968 +07 17 17.97343
 2018-Aug-04 11:17  m  20 37 00.134725 +07 17 18.05233
 2018-Aug-04 11:18  m  20 37 00.108482 +07 17 18.13122
 2018-Aug-04 11:19  m  20 37 00.082240 +07 17 18.21010
 2018-Aug-04 11:20  m  20 37 00.055999 +07 17 18.28898
 2018-Aug-04 11:21  m  20 37 00.029759 +07 17 18.36785
 2018-Aug-04 11:22  m  20 37 00.003519 +07 17 18.44671
 2018-Aug-04 11:23  m  20 36 59.977281 +07 17 18.52557
 2018-Aug-04 11:24  m  20 36 59.951043 +07 17 18.60441
 2018-Aug-04 11:25  m  20 36 59.924806 +07 17 18.68325
 2018-Aug-04 11:26  m  20 36 59.898570 +07 17 18.76209
 2018-Aug-04 11:27  m  20 36 59.872335 +07 17 18.84091
 2018-Aug-04 11:28  m  20 36 59.846101 +07 17 18.91973
 2018-Aug-04 11:29  m  20 36 59.819868 +07 17 18.99854
 2018-Aug-04 11:30  m  20 36 59.793635 +07 17 19.07735
 2018-Aug-04 11:31  m  20 36 59.767404 +07 17 19.15615
 2018-Aug-04 11:32  m  20 36 59.741173 +07 17 19.23494
 2018-Aug-04 11:33  m  20 36 59.714944 +07 17 19.31372
 2018-Aug-04 11:34  m  20 36 59.688715 +07 17 19.39249
 2018-Aug-04 11:35  m  20 36 59.662487 +07 17 19.47126
 2018-Aug-04 11:36  m  20 36 59.636261 +07 17 19.55002
 2018-Aug-04 11:37  m  20 36 59.610035 +07 17 19.62878
 2018-Aug-04 11:38  m  20 36 59.583810 +07 17 19.70752
 2018-Aug-04 11:39  m  20 36 59.557586 +07 17 19.78626
 2018-Aug-04 11:40  m  20 36 59.531364 +07 17 19.86500
 2018-Aug-04 11:41  m  20 36 59.505142 +07 17 19.94372
 2018-Aug-04 11:42  m  20 36 59.478921 +07 17 20.02244
 2018-Aug-04 11:43  m  20 36 59.452702 +07 17 20.10115
 2018-Aug-04 11:44  m  20 36 59.426483 +07 17 20.17985
 2018-Aug-04 11:45  m  20 36 59.400266 +07 17 20.25855
 2018-Aug-04 11:46  m  20 36 59.374049 +07 17 20.33724
 2018-Aug-04 11:47  m  20 36 59.347834 +07 17 20.41592
 2018-Aug-04 11:48  m  20 36 59.321620 +07 17 20.49460
 2018-Aug-04 11:49  m  20 36 59.295407 +07 17 20.57326
 2018-Aug-04 11:50  m  20 36 59.269195 +07 17 20.65193
 2018-Aug-04 11:51  m  20 36 59.242984 +07 17 20.73058
 2018-Aug-04 11:52  m  20 36 59.216774 +07 17 20.80923
 2018-Aug-04 11:53  m  20 36 59.190565 +07 17 20.88787
 2018-Aug-04 11:54  m  20 36 59.164358 +07 17 20.96650
 2018-Aug-04 11:55  m  20 36 59.138152 +07 17 21.04513
 2018-Aug-04 11:56  m  20 36 59.111946 +07 17 21.12374
 2018-Aug-04 11:57  m  20 36 59.085742 +07 17 21.20236
 2018-Aug-04 11:58  m  20 36 59.059540 +07 17 21.28096
 2018-Aug-04 11:59  m  20 36 59.033338 +07 17 21.35956
 2018-Aug-04 12:00  m  20 36 59.007138 +07 17 21.43815
 2018-Aug-04 12:01  m  20 36 58.980938 +07 17 21.51673
 2018-Aug-04 12:02  m  20 36 58.954740 +07 17 21.59531
 2018-Aug-04 12:03  m  20 36 58.928544 +07 17 21.67388
 2018-Aug-04 12:04  m  20 36 58.902348 +07 17 21.75244
 2018-Aug-04 12:05  m  20 36 58.876154 +07 17 21.83100
 2018-Aug-04 12:06  m  20 36 58.849961 +07 17 21.90955
 2018-Aug-04 12:07  m  20 36 58.823769 +07 17 21.98809
 2018-Aug-04 12:08  m  20 36 58.797579 +07 17 22.06662
 2018-Aug-04 12:09  m  20 36 58.771390 +07 17 22.14515
 2018-Aug-04 12:10  m  20 36 58.745202 +07 17 22.22367
 2018-Aug-04 12:11  m  20 36 58.719015 +07 17 22.30219
 2018-Aug-04 12:12  m  20 36 58.692830 +07 17 22.38069
 2018-Aug-04 12:13  m  20 36 58.666646 +07 17 22.45919
 2018-Aug-04 12:14  m  20 36 58.640463 +07 17 22.53769
 2018-Aug-04 12:15  m  20 36 58.614282 +07 17 22.61617
 2018-Aug-04 12:16  m  20 36 58.588102 +07 17 22.69465
 2018-Aug-04 12:17  m  20 36 58.561924 +07 17 22.77313
 2018-Aug-04 12:18  m  20 36 58.535747 +07 17 22.85159
 2018-Aug-04 12:19  m  20 36 58.509571 +07 17 22.93005
 2018-Aug-04 12:20  m  20 36 58.483397 +07 17 23.00851
 2018-Aug-04 12:21  m  20 36 58.457224 +07 17 23.08695
 2018-Aug-04 12:22  m  20 36 58.431052 +07 17 23.16539
 2018-Aug-04 12:23  m  20 36 58.404882 +07 17 23.24382
 2018-Aug-04 12:24  m  20 36 58.378713 +07 17 23.32225
 2018-Aug-04 12:25  m  20 36 58.352546 +07 17 23.40067
 2018-Aug-04 12:26  m  20 36 58.326380 +07 17 23.47908
 2018-Aug-04 12:27  m  20 36 58.300215 +07 17 23.55749
 2018-Aug-04 12:28  m  20 36 58.274052 +07 17 23.63588
 2018-Aug-04 12:29  m  20 36 58.247891 +07 17 23.71428
 2018-Aug-04 12:30  m  20 36 58.221731 +07 17 23.79266
 2018-Aug-04 12:31  m  20 36 58.195572 +07 17 23.87104
 2018-Aug-04 12:32  m  20 36 58.169415 +07 17 23.94941
 2018-Aug-04 12:33  m  20 36 58.143260 +07 17 24.02778
 2018-Aug-04 12:34  m  20 36 58.117106 +07 17 24.10614
 2018-Aug-04 12:35  m  20 36 58.090953 +07 17 24.18449
 2018-Aug-04 12:36  m  20 36 58.064802 +07 17 24.26283
 2018-Aug-04 12:37  m  20 36 58.038653 +07 17 24.34117
 2018-Aug-04 12:38  m  20 36 58.012505 +07 17 24.41951
 2018-Aug-04 12:39  m  20 36 57.986358 +07 17 24.49783
 2018-Aug-04 12:40  m  20 36 57.960213 +07 17 24.57615
 2018-Aug-04 12:41  m  20 36 57.934070 +07 17 24.65446
 2018-Aug-04 12:42  m  20 36 57.907929 +07 17 24.73277
 2018-Aug-04 12:43  m  20 36 57.881788 +07 17 24.81107
 2018-Aug-04 12:44  m  20 36 57.855650 +07 17 24.88936
 2018-Aug-04 12:45  m  20 36 57.829513 +07 17 24.96765
 2018-Aug-04 12:46  m  20 36 57.803378 +07 17 25.04593
 2018-Aug-04 12:47  m  20 36 57.777244 +07 17 25.12420
 2018-Aug-04 12:48  m  20 36 57.751112 +07 17 25.20247
 2018-Aug-04 12:49  m  20 36 57.724982 +07 17 25.28073
 2018-Aug-04 12:50  m  20 36 57.698853 +07 17 25.35898
 2018-Aug-04 12:51  m  20 36 57.672726 +07 17 25.43723
 2018-Aug-04 12:52  m  20 36 57.646600 +07 17 25.51547
 2018-Aug-04 12:53  m  20 36 57.620476 +07 17 25.59371
 2018-Aug-04 12:54  m  20 36 57.594354 +07 17 25.67193
 2018-Aug-04 12:55  m  20 36 57.568234 +07 17 25.75016
 2018-Aug-04 12:56  m  20 36 57.542115 +07 17 25.82837
 2018-Aug-04 12:57  m  20 36 57.515998 +07 17 25.90658
 2018-Aug-04 12:58  m  20 36 57.489883 +07 17 25.98478
 2018-Aug-04 12:59  m  20 36 57.463769 +07 17 26.06298
 2018-Aug-04 13:00  m  20 36 57.437657 +07 17 26.14117
 2018-Aug-04 13:01  m  20 36 57.411547 +07 17 26.21935
 2018-Aug-04 13:02  m  20 36 57.385438 +07 17 26.29753
 2018-Aug-04 13:03  m  20 36 57.359332 +07 17 26.37570
 2018-Aug-04 13:04  m  20 36 57.333227 +07 17 26.45387
 2018-Aug-04 13:05  m  20 36 57.307123 +07 17 26.53203
 2018-Aug-04 13:06  m  20 36 57.281022 +07 17 26.61018
 2018-Aug-04 13:07  m  20 36 57.254922 +07 17 26.68833
 2018-Aug-04 13:08  m  20 36 57.228824 +07 17 26.76647
 2018-Aug-04 13:09  m  20 36 57.202728 +07 17 26.84460
 2018-Aug-04 13:10  m  20 36 57.176634 +07 17 26.92273
 2018-Aug-04 13:11  m  20 36 57.150542 +07 17 27.00085
 2018-Aug-04 13:12  m  20 36 57.124451 +07 17 27.07897
 2018-Aug-04 13:13  m  20 36 57.098362 +07 17 27.15708
 2018-Aug-04 13:14  m  20 36 57.072275 +07 17 27.23518
 2018-Aug-04 13:15  m  20 36 57.046190 +07 17 27.31328
 2018-Aug-04 13:16  m  20 36 57.020106 +07 17 27.39137
 2018-Aug-04 13:17  m  20 36 56.994025 +07 17 27.46945
 2018-Aug-04 13:18  m  20 36 56.967945 +07 17 27.54753
